{"type": "FeatureCollection", "features": [{"type": "Feature", "geometry": {"type": "Polygon", "coordinates": [[[3807.239103627513, -1942.4313432004903], [3857.8802089589312, -1864.4435010005004], [3902.8733298923466, -1775.1660534005725], [3934.6380585884604, -1680.957005400368], [3961.069962074827, -1586.4383502004735], [3969.8612446906736, -1520.7684516006536], [3975.1360142604176, -1477.2575826005134], [4216.796762236782, 2871.363517199618], [3501.2029446482784, 2858.326842599691], [3510.72406959476, 3214.596270599796], [3388.268137688239, 3318.2704529998305], [3192.8113854218386, 3482.705048399667], [3118.2430627830345, 3481.7098823998226], [3117.7288556865315, 3561.6991139996308], [3107.3866581188227, 3561.6106547993827], [2644.683207999155, 3557.817966599844], [2316.220984687924, 3555.119960999742], [1448.2062313345466, 3005.534008799339], [1439.157845170448, 3220.401405599281], [517.1762276854444, 2790.478636199557], [508.9074458296317, 2714.4700685999123], [146.10945833977132, 2710.423060199759], [145.81918014093088, 2616.3909305992647], [-420.28136466758957, 2360.4674075995845], [-491.2999996085228, 2337.4016711995228], [-558.0142235338932, 2326.3995581998015], [-557.7488263221104, 2292.7076603996984], [-574.3859139890383, 2136.190163399672], [-906.8705637805228, 2036.0322341998735], [-909.0352097830117, 1723.8154877999552], [-909.1181464112519, 1712.1720455998106], [-1291.2154873411482, 1714.2176645993602], [-1413.6050699441346, 1701.1588751999604], [-1423.3832984388675, 1689.4380311996972], [-1428.7575919627352, 996.7250933994012], [-1468.799396178193, 598.1500529998847], [-1485.2125549474583, 252.87168059937176], [-1473.3609107420077, -748.619152200725], [-1472.1915042807575, -890.0432982003601], [-1479.42357828239, -1038.9201318006637], [-1143.0823752683104, -1456.3148670001199], [-321.85217402375656, -2549.526832800417], [2629.679971912329, -2001.079792799967], [3105.7113382246002, -1966.3042698005568], [3807.239103627513, -1942.4313432004903]]]}, "properties": {"name": "Fermilab site boundary"}}]}